     2.100          NAVIGATION                              RINEX VERSION / TYPE
fic2rin                                 03/03/2018 00:14:41 PGM / RUN BY / DATE
                                                            END OF HEADER
28 18  3  2  8  0  0.0  .693368725479D-03  .352429196937D-11  .000000000000D+00
     .790000000000D+02  .625000000000D+00  .370444001908D-08  .728549291185D+00
     .111758708954D-07  .196467615897D-01  .132657587528D-04  .515367897606D+04
     .460800000000D+06 -.245869159698D-06 -.313564401467D+01 -.143423676491D-06
     .986972827768D+00  .141750000000D+03 -.152497894677D+01 -.789532887214D-08
    -.286083345091D-09  .100000000000D+01  .199000000000D+04  .000000000000D+00
     .340000000000D+01  .000000000000D+00 -.111758708954D-07  .790000000000D+02
     .453606000000D+06  .400000000000D+01
29 18  3  2  8  0  0.0  .488660298288D-03 -.579802872380D-11  .000000000000D+00
     .430000000000D+02  .124218750000D+03  .416767360033D-08  .123015802886D+01
     .629015266895D-05  .541321584024D-03  .728480517864D-05  .515373140335D+04
     .460800000000D+06  .465661287308D-07 -.211435789037D+01  .279396772385D-07
     .983278293991D+00  .248031250000D+03  .767981604328D+00 -.809533720329D-08
     .623597403906D-09  .100000000000D+01  .199000000000D+04  .000000000000D+00
     .240000000000D+01  .000000000000D+00 -.102445483208D-07  .430000000000D+02
     .453606000000D+06  .400000000000D+01
30 18  3  2  8  0  0.0  .988370738924D-04 -.352429196937D-11  .000000000000D+00
     .330000000000D+02 -.447187500000D+02  .531057834976D-08 -.284159491478D+01
    -.229105353355D-05  .307276798412D-02  .428035855293D-05  .515375865555D+04
     .460800000000D+06 -.521540641785D-07  .206880787472D+01 -.931322574615D-08
     .944666862218D+00  .289093750000D+03 -.313215445181D+01 -.855499920720D-08
    -.335728270144D-09  .100000000000D+01  .199000000000D+04  .000000000000D+00
     .240000000000D+01  .000000000000D+00  .372529029846D-08  .330000000000D+02
     .453606000000D+06  .400000000000D+01
31 18  3  2  8  0  0.0  .138253439218D-03 -.261479726760D-11  .000000000000D+00
     .510000000000D+02 -.364375000000D+02  .490984737199D-08  .306078425098D+01
    -.188313424587D-05  .880842155311D-02  .420212745667D-05  .515360761452D+04
     .460800000000D+06 -.521540641785D-07  .204608976344D+01  .633299350739D-07
     .963694724611D+00  .303125000000D+03 -.146729954817D+00 -.830534595100D-08
    -.337156901081D-09  .100000000000D+01  .199000000000D+04  .000000000000D+00
     .240000000000D+01  .000000000000D+00 -.135041773319D-07  .510000000000D+02
     .453606000000D+06  .400000000000D+01
32 18  3  2  8  0  0.0 -.530478078872D-03  .159161572810D-11  .000000000000D+00
     .330000000000D+02  .632812500000D+02  .473912597505D-08  .645645270128D+00
     .336021184921D-05  .174478988629D-02  .898353755474D-05  .515363949966D+04
     .460800000000D+06  .428408384323D-07  .959999130217D+00 -.186264514923D-07
     .957297762746D+00  .204187500000D+03 -.267617793554D+01 -.821212778237D-08
     .527164815673D-09  .100000000000D+01  .199000000000D+04  .000000000000D+00
     .240000000000D+01  .000000000000D+00  .465661287308D-09  .330000000000D+02
     .453606000000D+06  .400000000000D+01
 2 18  3  2  7 59 44.0  .185936223716D-03 -.108002495836D-10  .000000000000D+00
     .300000000000D+02 -.531562500000D+02  .530522098375D-08 -.196003984531D+01
    -.243261456490D-05  .178400424775D-01  .817701220512D-06  .515368802643D+04
     .460784000000D+06  .210478901863D-06 -.118059872529D+01  .763684511185D-07
     .949056532243D+00  .351937500000D+03 -.188613190000D+01 -.858964350742D-08
    -.571452374714D-10  .100000000000D+01  .199000000000D+04  .000000000000D+00
     .240000000000D+01  .000000000000D+00 -.204890966415D-07  .300000000000D+02
     .456726000000D+06  .400000000000D+01
 3 18  3  2  7 59 44.0  .198967754841D-04  .795807864051D-11  .000000000000D+00
     .350000000000D+02 -.771875000000D+02  .421410410578D-08  .308221077237D+01
    -.410154461861D-05  .121293216944D-02  .119823962450D-04  .515355774117D+04
     .460784000000D+06 -.614672899246D-07 -.784821434277D-01  .316649675369D-07
     .961241184239D+00  .146375000000D+03  .449237303257D+00 -.786532762247D-08
    -.251439044874D-09  .100000000000D+01  .199000000000D+04  .000000000000D+00
     .240000000000D+01  .000000000000D+00  .232830643654D-08  .350000000000D+02
     .460296000000D+06  .400000000000D+01
26 18  3  2  7 59 44.0 -.232357531786D-03  .134150468512D-10  .000000000000D+00
     .200000000000D+01 -.223437500000D+02  .429053586090D-08  .170835949356D+01
    -.108964741230D-05  .272279803175D-02  .131204724312D-04  .515362414551D+04
     .460784000000D+06 -.521540641785D-07  .304532809137D+01 -.167638063431D-07
     .956922945579D+00  .124093750000D+03  .458376619169D-01 -.788497129785D-08
    -.401445293236D-09  .100000000000D+01  .199000000000D+04  .000000000000D+00
     .240000000000D+01  .000000000000D+00  .745058059692D-08  .200000000000D+01
     .460356000000D+06  .400000000000D+01
 2 18  3  2  9 59 44.0  .185858923942D-03 -.108002495836D-10  .000000000000D+00
     .310000000000D+02 -.405937500000D+02  .552487299028D-08 -.910020968335D+00
    -.167451798916D-05  .178400132572D-01  .210665166378D-05  .515368259621D+04
     .467984000000D+06 -.139698386192D-06 -.118066147278D+01  .309199094772D-06
     .949054018949D+00  .335250000000D+03 -.188597043627D+01 -.901037531830D-08
    -.121076471892D-09  .100000000000D+01  .199000000000D+04  .000000000000D+00
     .240000000000D+01  .000000000000D+00 -.204890966415D-07  .310000000000D+02
     .460806000000D+06  .400000000000D+01
 3 18  3  2  9 59 44.0  .199545174837D-04  .795807864051D-11  .000000000000D+00
     .360000000000D+02 -.902187500000D+02  .436589614281D-08 -.215136641597D+01
    -.454857945442D-05  .121459609363D-02  .119637697935D-04  .515355428886D+04
     .467984000000D+06  .558793544769D-08 -.785394283739D-01 -.540167093277D-07
     .961239389239D+00  .149031250000D+03  .449880637574D+00 -.793104464556D-08
    -.200722646618D-09  .100000000000D+01  .199000000000D+04  .000000000000D+00
     .240000000000D+01  .000000000000D+00  .232830643654D-08  .360000000000D+02
     .460806000000D+06  .400000000000D+01
26 18  3  2  9 59 44.0 -.232260674238D-03  .134150468512D-10  .000000000000D+00
     .370000000000D+02 -.245625000000D+02  .428160691754D-08  .275829974308D+01
    -.120885670185D-05  .272293086164D-02  .135693699121D-04  .515362508011D+04
     .467984000000D+06  .931322574615D-08  .304527136087D+01 -.465661287308D-07
     .956919888080D+00  .115375000000D+03  .461058981872D-01 -.789211445253D-08
    -.428946438769D-09  .100000000000D+01  .199000000000D+04  .000000000000D+00
     .240000000000D+01  .000000000000D+00  .745058059692D-08  .370000000000D+02
     .460806000000D+06  .400000000000D+01
 1 18  3  2 10  0  0.0 -.317343510687D-04 -.216004991671D-11  .000000000000D+00
     .440000000000D+02 -.467812500000D+02  .485805950054D-08 -.127973850963D+01
    -.242330133915D-05  .740706047509D-02  .179745256901D-05  .515366798019D+04
     .468000000000D+06  .193715095520D-06 -.112133742363D+01 -.353902578354D-07
     .970044286467D+00  .347843750000D+03  .611393462969D+00 -.849606818106D-08
    -.129291099779D-09  .100000000000D+01  .199000000000D+04  .000000000000D+00
     .240000000000D+01  .000000000000D+00  .558793544769D-08  .440000000000D+02
     .460806000000D+06  .400000000000D+01
 4 18  3  2 10  0  0.0  .418657436967D-04  .284217094304D-11  .000000000000D+00
     .290000000000D+02 -.149687500000D+02  .497592155282D-08  .212453975778D+01
    -.758096575737D-06  .964625203051D-02  .143107026815D-04  .515368792725D+04
     .468000000000D+06 -.949949026108D-07  .309017460727D+01 -.212341547012D-06
     .980177697638D+00  .113093750000D+03  .898114212256D+00 -.759638784862D-08
    -.365729519817D-09  .100000000000D+01  .199000000000D+04  .000000000000D+00
     .240000000000D+01  .630000000000D+02 -.195577740669D-07  .290000000000D+02
     .460806000000D+06  .400000000000D+01
 5 18  3  2 10  0  0.0 -.130659900606D-04  .909494701773D-12  .000000000000D+00
     .470000000000D+02 -.827500000000D+02  .472269671927D-08  .169784495127D+01
    -.419840216637D-05  .528894388117D-02  .123772770166D-04  .515365971565D+04
     .468000000000D+06 -.111758708954D-06 -.991647607360D-01  .949949026108D-07
     .948134917259D+00  .137312500000D+03  .618692713206D+00 -.811319509000D-08
    -.265011038773D-09  .100000000000D+01  .199000000000D+04  .000000000000D+00
     .240000000000D+01  .000000000000D+00 -.107102096081D-07  .470000000000D+02
     .460806000000D+06  .400000000000D+01
 6 18  3  2 10  0  0.0  .413636676967D-03 -.795807864051D-12  .000000000000D+00
     .580000000000D+02 -.478750000000D+02  .488341769966D-08 -.105410387383D+01
    -.254996120930D-05  .115510786418D-02  .221282243729D-05  .515357722473D+04
     .468000000000D+06 -.316649675369D-07 -.112967610935D+01 -.726431608200D-07
     .969769531434D+00  .343906250000D+03 -.120119865701D+01 -.853535553182D-08
    -.192508018732D-09  .100000000000D+01  .199000000000D+04  .000000000000D+00
     .240000000000D+01  .000000000000D+00  .465661287308D-08  .580000000000D+02
     .460806000000D+06  .400000000000D+01
 7 18  3  2 10  0  0.0  .229175202549D-03 -.568434188608D-11  .000000000000D+00
     .440000000000D+02 -.393125000000D+02  .492949104737D-08 -.196932808628D+01
    -.217370688915D-05  .112208687933D-01  .393390655518D-05  .515367827415D+04
     .468000000000D+06  .670552253723D-07  .203388883794D+01 -.141561031342D-06
     .959010662803D+00  .301687500000D+03 -.254356986834D+01 -.830463163553D-08
    -.200722646618D-09  .100000000000D+01  .199000000000D+04  .000000000000D+00
     .240000000000D+01  .000000000000D+00 -.111758708954D-07  .440000000000D+02
     .460806000000D+06  .400000000000D+01
